{"spkid": "20744281", "covariance": {"labels": ["e", "q", "tp", "node", "peri", "i"], "elements": [{"label": "e", "title": "eccentricity", "value": ".6881651357673203", "units": null, "name": "e", "sigma": 2.48538700165364e-08}, {"label": "q", "name": "q", "sigma": 6.99125149959594e-08, "units": "au", "title": "perihelion distance", "value": ".8643840687846394"}, {"sigma": 3.00657247067191e-05, "name": "tp", "units": "TDB", "title": "time of perihelion passage", "value": "2460116.944462874491", "label": "tp"}, {"value": "179.2250792058369", "title": "longitude of the ascending node", "units": "deg", "name": "om", "sigma": 1.70510452419945e-05, "label": "node"}, {"label": "peri", "name": "w", "sigma": 1.81413396311357e-05, "units": "deg", "title": "argument of perihelion", "value": "134.2700580201558"}, {"units": "deg", "title": "inclination", "value": "18.64531399903081", "name": "i", "sigma": 6.51395632147183e-06, "label": "i"}], "data": [["6.177148547988888E-16", "-1.735965388307625E-15", "-2.215252640814452E-13", "1.393216934948509E-13", "-2.662848363055937E-13", "3.567797568003074E-14"], ["-1.735965388307625E-15", "4.887759753060243E-15", "7.084043744271154E-13", "-3.802647734147025E-13", "7.523025357500293E-13", "-1.033190529709522E-13"], ["-2.215252640814452E-13", "7.084043744271154E-13", "9.039478021402223E-10", "4.251347687504656E-11", "1.58692692874252E-10", "-4.267518970243598E-11"], ["1.393216934948509E-13", "-3.802647734147025E-13", "4.251347687504656E-11", "2.907381438445436E-10", "-2.710335143515025E-10", "5.32998427019469E-11"], ["-2.662848363055937E-13", "7.523025357500293E-13", "1.58692692874252E-10", "-2.710335143515025E-10", "3.29108203612216E-10", "-6.104793652939782E-11"], ["3.567797568003074E-14", "-1.033190529709522E-13", "-4.267518970243598E-11", "5.32998427019469E-11", "-6.104793652939782E-11", "4.243162695804279E-11"]], "epoch": "2459350.5"}, "elements": [{"value": ".6897943343112795", "title": "eccentricity", "units": null, "sigma": "2.5046E-8", "name": "e", "label": "e"}, {"sigma": "1.0362E-8", "name": "a", "units": "au", "title": "semi-major axis", "value": "2.765917207545206", "label": "a"}, {"label": "q", "units": "au", "title": "perihelion distance", "value": ".8580031886064476", "sigma": "7.0367E-8", "name": "q"}, {"label": "i", "name": "i", "sigma": "6.5142E-6", "value": "18.71928029638492", "title": "inclination; angle with respect to x-y ecliptic plane", "units": "deg"}, {"units": "deg", "title": "longitude of the ascending node", "value": "178.9491320138445", "name": "om", "sigma": "1.7051E-5", "label": "node"}, {"label": "peri", "units": "deg", "value": "134.4486457895088", "title": "argument of perihelion", "name": "w", "sigma": "1.8073E-5"}, {"label": "M", "title": "mean anomaly", "value": "231.9818987008408", "units": "deg", "sigma": "7.6512E-6", "name": "ma"}, {"sigma": "3.9021E-5", "name": "tp", "units": "TDB", "value": "2461797.983714167895", "title": "time of perihelion passage", "label": "tp"}, {"label": "period", "name": "per", "sigma": "9.4416E-6", "value": "1680.185340335576", "title": "sidereal orbital period", "units": "d"}, {"label": "n", "units": "deg/d", "title": "mean motion", "value": ".2142620765445428", "sigma": "1.204E-9", "name": "n"}, {"label": "Q", "sigma": "1.7509E-8", "name": "ad", "units": "au", "value": "4.673831226483965", "title": "aphelion distance"}], "epoch": "2461200.5"}